{"type": "FeatureCollection", "features": [{"type": "Feature", "properties": {"name": "Aldeia Xucuru Kariri — Fazenda Boa Vista", "kind": "ti", "category": "indigenous_land", "color": "#c0392b", "overlap_warning": true, "state": "MG", "municipality": "Caldas", "area_ha": 337, "population": 143, "people": "Xucuru Kariri (Xukuru-Kariri) — displaced from Alagoas via Bahia and Triângulo Mineiro, settled Caldas May 29, 2001. First indigenous village in Sul de Minas. Cacique Jânio Ferreira do Nascimento (JAL).", "source_url": "https://caldas.mg.gov.br/20-anos-da-etnia-indigena-xucuru-kariri-em-caldas/", "status": "regularized", "year_arrived": 2001}, "geometry": {"type": "Polygon", "coordinates": [[[-46.37, -21.85], [-46.34, -21.85], [-46.34, -21.88], [-46.37, -21.88], [-46.37, -21.85]]]}}, {"type": "Feature", "properties": {"name": "Aldeia Ibiramã Kiriri — Rio Verde", "kind": "ti", "category": "indigenous_land", "color": "#c0392b", "overlap_warning": true, "state": "MG", "municipality": "Caldas", "area_ha": 60, "population": 59, "people": "Ibiramã Kiriri — from Muquém de São Francisco (BA), arrived Caldas March 13, 2017. 60-hectare territory in Bairro Rio Verde, rural zone. Regularized 2024. Land donated by ALMG (Projeto de Lei Ibiramã Kiriri).", "source_url": "https://www.em.com.br/app/noticia/politica,1214365/almg-aprova-projeto-para-doacao-terreno-a-tribo-indigena-sul-de-minas.shtml", "status": "regularized", "year_arrived": 2017}, "geometry": {"type": "Polygon", "coordinates": [[[-46.39, -21.9], [-46.36, -21.9], [-46.36, -21.93], [-46.39, -21.93], [-46.39, -21.9]]]}}, {"type": "Feature", "properties": {"name": "Aldeia Kariri Wakonã — Taquari", "kind": "ti", "category": "indigenous_land", "color": "#c0392b", "overlap_warning": true, "state": "MG", "municipality": "Caldas", "area_ha": 45, "population": 18, "people": "Kariri Wakonã — families who split from Xucuru Kariri in May 2023 due to internal conflicts. 7 families, 18 people. Third group to leave: first went to Presidente Olegário, second to Brumadinho, third settled in Taquari. Seeking land regularization.", "source_url": "https://g1.globo.com/mg/sul-de-minas/noticia/2024/04/19/dia-dos-povos-indigenas-conheca-as-aldeias-que-escolheram-o-sul-de-minas-para-viver.ghtml", "status": "pending_regularization", "year_arrived": 2023}, "geometry": {"type": "Polygon", "coordinates": [[[-46.4, -21.86], [-46.38, -21.86], [-46.38, -21.88], [-46.4, -21.88], [-46.4, -21.86]]]}}, {"type": "Feature", "properties": {"name": "Quilombo da Favela (Chapéu Preto)", "kind": "quilombo", "category": "quilombola_territory", "color": "#f39c12", "overlap_warning": true, "state": "MG", "municipality": "Poços de Caldas", "area_ha": 3200, "people": "Quilombola community — ancestral land rights recognized by FUNAI. Direct overlap with rare earth mining claims in Poços de Caldas region.", "source_url": "http://www.incra.gov.br/quilombolas"}, "geometry": {"type": "Polygon", "coordinates": [[[-46.6, -21.6], [-46.48, -21.6], [-46.48, -21.72], [-46.6, -21.72], [-46.6, -21.6]]]}}, {"type": "Feature", "properties": {"name": "Terra Indígena Krenak", "kind": "ti", "category": "indigenous_land", "color": "#c0392b", "overlap_warning": false, "state": "MG", "municipality": "Resplendor / Governador Valadares", "area_ha": 15400, "people": "Krenak (Krenakano) — historically displaced from Rio Doce basin, ongoing land reclamation. Within ~100km radius of Poços de Caldas.", "source_url": "https://www.funai.gov.br"}, "geometry": {"type": "Polygon", "coordinates": [[[-46.95, -21.1], [-46.8, -21.1], [-46.8, -21.25], [-46.95, -21.25], [-46.95, -21.1]]]}}, {"type": "Feature", "properties": {"name": "Área de Proteção Ambiental da Serra da Mantiqueira", "kind": "conservation", "category": "conservation_unit", "color": "#27ae60", "overlap_warning": false, "state": "MG", "municipality": "Poços de Caldas / Andradas / Caldas", "area_ha": 48000, "people": "State APA — biodiversity hotspot, water sources for multiple municipalities. Critical watershed protection area threatened by mining expansion.", "source_url": "http://www.mg.gov.br/meioambiente"}, "geometry": {"type": "Polygon", "coordinates": [[[-46.7, -21.65], [-46.45, -21.65], [-46.45, -21.95], [-46.7, -21.95], [-46.7, -21.65]]]}}, {"type": "Feature", "properties": {"name": "APA Santuário Ecológico da Pedra Branca", "kind": "conservation_unit", "category": "conservation_unit", "color": "#27ae60", "overlap_warning": "Mining prohibited (Lei 1.973/2006, exc. licensed pre-existing)", "state": "MG", "municipality": "Caldas", "area_ha": 11955, "people": "", "source_url": "https://territorioslivres.org/wp-content/uploads/2021/09/LEI-NA%E2%80%9AAo-1.973-DE-29-12-2006-29_09_2021-23_12_25.pdf", "status": "sem plano de manejo", "legal": "Lei Municipal nº 1.973/2006", "boundary_status": "official memorial P-01..P-41, Anexo I (UTM 23S, SIRGAS2000)"}, "geometry": {"type": "Polygon", "coordinates": [[[-46.367512, -21.979242], [-46.344906, -22.005669], [-46.331801, -21.989246], [-46.33635, -21.964007], [-46.339072, -21.953823], [-46.344623, -21.945838], [-46.354926, -21.934724], [-46.351495, -21.929242], [-46.353133, -21.924243], [-46.356469, -21.919753], [-46.358118, -21.916063], [-46.3627, -21.914309], [-46.366071, -21.91868], [-46.368002, -21.922178], [-46.373342, -21.92076], [-46.376029, -21.92436], [-46.378795, -21.927074], [-46.382544, -21.927313], [-46.389363, -21.925747], [-46.391146, -21.926906], [-46.394524, -21.924873], [-46.398445, -21.921922], [-46.402825, -21.920376], [-46.404988, -21.918786], [-46.409606, -21.920842], [-46.418798, -21.914557], [-46.419438, -21.928263], [-46.423269, -21.93486], [-46.430504, -21.941951], [-46.438012, -21.952056], [-46.453388, -21.962507], [-46.464342, -21.98164], [-46.473781, -22.010405], [-46.472257, -22.019442], [-46.476661, -22.02372], [-46.469583, -22.032581], [-46.453615, -22.034205], [-46.436515, -22.037987], [-46.403474, -22.011076], [-46.375665, -22.014284], [-46.375967, -21.99338], [-46.367512, -21.979242]]]}}, {"type": "Feature", "properties": {"name": "Zona de Amortecimento — APA Pedra Branca (indicativa, 3 km)", "kind": "buffer_zone", "category": "buffer_zone", "color": "#2ecc71", "overlap_warning": "", "state": "MG", "municipality": "Caldas", "area_ha": 30937, "people": "", "source_url": "https://territorioslivres.org/wp-content/uploads/2021/09/LEI-NA%E2%80%9AAo-1.973-DE-29-12-2006-29_09_2021-23_12_25.pdf", "status": "indicativa", "legal": "Entorno indicativo (3 km) — APA sem plano de manejo", "boundary_status": "3 km entorno ring around the official memorial; pending plano de manejo"}, "geometry": {"type": "Polygon", "coordinates": [[[-46.445501, -21.862778], [-46.453184, -21.924925], [-46.459179, -21.932992], [-46.47596, -21.944399], [-46.491357, -21.971291], [-46.503555, -22.008465], [-46.503221, -22.010448], [-46.514622, -22.021523], [-46.485393, -22.058114], [-46.458595, -22.06084], [-46.428624, -22.067469], [-46.394095, -22.039346], [-46.363212, -22.027681], [-46.344104, -22.05002], [-46.30107, -21.996091], [-46.30784, -21.95853], [-46.311997, -21.942976], [-46.319977, -21.932631], [-46.32661, -21.912388], [-46.330768, -21.906792], [-46.335861, -21.895395], [-46.372936, -21.881203], [-46.379983, -21.900106], [-46.37739, -21.903022], [-46.383734, -21.898246], [-46.388275, -21.896644], [-46.401175, -21.887161], [-46.406424, -21.889497], [-46.445501, -21.862778]], [[-46.367512, -21.979242], [-46.375967, -21.99338], [-46.375665, -22.014284], [-46.403474, -22.011076], [-46.436515, -22.037987], [-46.453615, -22.034205], [-46.469583, -22.032581], [-46.476661, -22.02372], [-46.472257, -22.019442], [-46.473781, -22.010405], [-46.464342, -21.98164], [-46.453388, -21.962507], [-46.438012, -21.952056], [-46.430504, -21.941951], [-46.423269, -21.93486], [-46.419438, -21.928263], [-46.418798, -21.914557], [-46.409606, -21.920842], [-46.404988, -21.918786], [-46.402825, -21.920376], [-46.398445, -21.921922], [-46.394524, -21.924873], [-46.391146, -21.926906], [-46.389363, -21.925747], [-46.382544, -21.927313], [-46.378795, -21.927074], [-46.376029, -21.92436], [-46.373342, -21.92076], [-46.368002, -21.922178], [-46.366071, -21.91868], [-46.3627, -21.914309], [-46.358118, -21.916063], [-46.356469, -21.919753], [-46.353133, -21.924243], [-46.351495, -21.929242], [-46.354926, -21.934724], [-46.344623, -21.945838], [-46.339072, -21.953823], [-46.33635, -21.964007], [-46.331801, -21.989246], [-46.344906, -22.005669], [-46.367512, -21.979242]]]}}]}